NORAD_CAT_ID,OBJECT_NAME,OBJECT_TYPE,EPOCH,MEAN_MOTION,ECCENTRICITY,INCLINATION,RA_OF_ASC_NODE,ARG_OF_PERICENTER,MEAN_ANOMALY,BSTAR,MEAN_MOTION_DOT,MEAN_MOTION_DDOT,TLE_LINE0,TLE_LINE1,TLE_LINE2,SEMIMAJOR_AXIS,PERIOD,APOGEE,PERIGEE,DECAYED
53640.0,STARLINK-4597,PAYLOAD,2023-01-27 01:09:36,15.088294199999998,0.0001199999999999,53.2163,290.9319,89.5224,270.5905,8.577799999999999e-05,1.077e-05,0.0,0 STARLINK-4597,1 53640U 22104BE  23027.04834161  .00001077  00000-0  85778-4 0  9992,2 53640  53.2163 290.9319 0001200  89.5224 270.5905 15.08829420 24481,6917.9130000000005,95.438,540.6080000000001,538.948,0.0
53640.0,STARLINK-4597,PAYLOAD,2023-01-28 02:35:46,15.0887339,0.0001239,53.2162,286.1737,96.9363,263.177,0.0013192,0.00020789,0.0,0 STARLINK-4597,1 53640U 22104BE  23028.10817409  .00020789  00000-0  13192-2 0  9996,2 53640  53.2162 286.1737 0001239  96.9363 263.1770 15.08873390 23627,6917.778,95.435,540.5,538.786,0.0
53640.0,STARLINK-4597,PAYLOAD,2023-01-28 18:29:37,15.08852252,0.0001172,53.2155,283.2012,84.8541,275.2585,0.0007959,0.00012406,0.0,0 STARLINK-4597,1 53640U 22104BE  23028.77057444  .00012406  00000-0  79590-3 0  9996,2 53640  53.2155 283.2012 0001172  84.8541 275.2585 15.08852252 23726,6917.843,95.437,540.519,538.897,0.0
53640.0,STARLINK-4597,PAYLOAD,2023-01-28 20:05:00,15.08849128,0.0001163,53.2157,282.9042,77.8879,282.2244,0.00073518,0.00011435,0.0,0 STARLINK-4597,1 53640U 22104BE  23028.83681471  .00011435  00000-0  73518-3 0  9991,2 53640  53.2157 282.9042 0001163  77.8879 282.2244 15.08849128 24755,6917.852,95.437,540.522,538.913,0.0
53640.0,STARLINK-4597,PAYLOAD,2023-01-29 16:45:01,15.08845794,0.0001373,53.2168,279.0368,87.3205,272.7945,0.00076727,0.00011946,0.0,0 STARLINK-4597,1 53640U 22104BE  23029.69793435  .00011946  00000-0  76727-3 0  9992,2 53640  53.2168 279.0368 0001373  87.3205 272.7945 15.08845794 23865,6917.863,95.437,540.678,538.778,0.0
53640.0,STARLINK-4597,PAYLOAD,2023-01-29 23:06:34,15.08847866,0.0001293,53.2168,277.8475,88.193,271.9211,0.0007196,0.00011185,0.0,0 STARLINK-4597,1 53640U 22104BE  23029.96289364  .00011185  00000-0  71960-3 0  9992,2 53640  53.2168 277.8475 0001293  88.1930 271.9211 15.08847866 24922,6917.856,95.437,540.616,538.827,0.0
53640.0,STARLINK-4597,PAYLOAD,2023-01-30 02:17:20,15.08850861,0.0001303,53.2169,277.2529,88.295,271.8192,0.00062115,9.614e-05,0.0,0 STARLINK-4597,1 53640U 22104BE  23030.09537245  .00009614  00000-0  62115-3 0  9998,2 53640  53.2169 277.2529 0001303  88.2950 271.8192 15.08850861 24940,6917.847,95.437,540.614,538.811,0.0
53640.0,STARLINK-4597,PAYLOAD,2023-01-30 22:57:20,15.08844365,0.0001218,53.2161,273.3877,84.3116,275.8015,0.00020322,2.948e-05,0.0,0 STARLINK-4597,1 53640U 22104BE  23030.95649235  .00002948  00000-0  20322-3 0  9993,2 53640  53.2161 273.3877 0001218  84.3116 275.8015 15.08844365 25076,6917.867,95.437,540.575,538.889,0.0
53640.0,STARLINK-4597,PAYLOAD,2023-01-31 00:32:44,15.08846283,0.0001214,53.2162,273.0907,84.2381,275.8749,0.00020051,2.905e-05,0.0,0 STARLINK-4597,1 53640U 22104BE  23031.02273168  .00002905  00000-0  20051-3 0  9992,2 53640  53.2162 273.0907 0001214  84.2381 275.8749 15.08846283 24060,6917.861,95.437,540.566,538.886,0.0
53640.0,STARLINK-4597,PAYLOAD,2023-02-01 01:58:52,15.08915201,0.0003076,53.2165,268.3336,62.0165,298.1138,0.0019171,0.00030419,0.0,0 STARLINK-4597,1 53640U 22104BE  23032.08255532  .00030419  00000-0  19171-2 0  9995,2 53640  53.2165 268.3336 0003076  62.0165 298.1138 15.08915201 24223,6917.651,95.433,541.643,537.388,0.0
53640.0,STARLINK-4597,PAYLOAD,2023-02-02 03:25:04,15.08840836,0.0001263,53.2158,263.5744,74.3249,285.7882,9.4475e-05,1.216e-05,0.0,0 STARLINK-4597,1 53640U 22104BE  23033.14241161  .00001216  00000-0  94475-4 0  9991,2 53640  53.2158 263.5744 0001263  74.3249 285.7882 15.08840836 24386,6917.878,95.438,540.617,538.869,0.0
53640.0,STARLINK-4597,PAYLOAD,2023-02-02 14:32:45,15.08870888,0.0002218,53.2157,261.4924,56.1226,303.9977,-0.0017788,-0.00028511,0.0,0 STARLINK-4597,1 53640U 22104BE  23033.60607837 -.00028511  00000-0 -17788-2 0  9997,2 53640  53.2157 261.4924 0002218  56.1226 303.9977 15.08870888 25475,6917.786,95.436,541.185,538.117,0.0
53640.0,STARLINK-4597,PAYLOAD,2023-02-02 16:08:08,15.08866292,0.0002149,53.2145,261.1958,58.0888,302.0313,-0.0013603,-0.00021888,0.0,0 STARLINK-4597,1 53640U 22104BE  23033.67232037 -.00021888  00000-0 -13603-2 0  9992,2 53640  53.2145 261.1958 0002149  58.0888 302.0313 15.08866292 24460,6917.8,95.436,541.152,538.178,0.0
53640.0,STARLINK-4597,PAYLOAD,2023-02-03 14:23:33,15.08842254,0.0001207,53.2124,257.0318,90.9378,269.1752,0.00023534,3.46e-05,0.0,0 STARLINK-4597,1 53640U 22104BE  23034.59969377  .00003460  00000-0  23534-3 0  9997,2 53640  53.2124 257.0318 0001207  90.9378 269.1752 15.08842254 24602,6917.873,95.437,540.573,538.904,0.0
53640.0,STARLINK-4597,PAYLOAD,2023-02-04 14:14:20,15.08842812,0.0001278,53.2114,252.5703,94.8269,265.2869,0.00019967,2.892e-05,0.0,0 STARLINK-4597,1 53640U 22104BE  23035.59329443  .00002892  00000-0  19967-3 0  9995,2 53640  53.2114 252.5703 0001278  94.8269 265.2869 15.08842812 25774,6917.872,95.437,540.621,538.853,0.0
53640.0,STARLINK-4597,PAYLOAD,2023-02-04 20:35:53,15.0884221,0.0001403,53.2133,251.3819,88.6896,271.4257,0.00012797,1.749e-05,0.0,0 STARLINK-4597,1 53640U 22104BE  23035.85825494  .00001749  00000-0  12797-3 0  9995,2 53640  53.2133 251.3819 0001403  88.6896 271.4257 15.08842210 24790,6917.874,95.437,540.709,538.768,0.0
53640.0,STARLINK-4597,PAYLOAD,2023-02-05 12:29:44,15.08840448,0.0001301,53.2146,248.4098,82.6583,277.4557,9.486e-05,1.222e-05,0.0,0 STARLINK-4597,1 53640U 22104BE  23036.52065668  .00001222  00000-0  94860-4 0  9997,2 53640  53.2146 248.4098 0001301  82.6583 277.4557 15.08840448 25919,6917.879,95.438,540.644,538.844,0.0
53640.0,STARLINK-4597,PAYLOAD,2023-02-05 20:26:40,15.08842925,0.0001201,53.2167,246.922,87.6691,272.4439,4.84e-05,4.83e-06,0.0,0 STARLINK-4597,1 53640U 22104BE  23036.85185476  .00000483  00000-0  48400-4 0  9990,2 53640  53.2167 246.9220 0001201  87.6691 272.4439 15.08842925 25967,6917.871,95.437,540.567,538.906,0.0
53640.0,STARLINK-4597,PAYLOAD,2023-02-06 01:12:49,15.08844243,0.0001146,53.2171,246.0301,84.6223,275.4899,8.1478e-05,1.009e-05,0.0,0 STARLINK-4597,1 53640U 22104BE  23037.05057287  .00001009  00000-0  81478-4 0  9998,2 53640  53.2171 246.0301 0001146  84.6223 275.4899 15.08844243 24977,6917.867,95.437,540.525,538.94,0.0
53640.0,STARLINK-4597,PAYLOAD,2023-02-06 20:17:27,15.08843377,0.000114,53.2172,242.4616,80.773,279.3391,6.6529e-05,7.71e-06,0.0,0 STARLINK-4597,1 53640U 22104BE  23037.84545494  .00000771  00000-0  66529-4 0  9992,2 53640  53.2172 242.4616 0001140  80.7730 279.3391 15.08843377 26116,6917.87,95.437,540.524,538.946,0.0
53640.0,STARLINK-4597,PAYLOAD,2023-02-06 23:28:13,15.08846513,0.0001123,53.2174,241.8674,81.3803,278.7316,9.7286e-05,1.261e-05,0.0,0 STARLINK-4597,1 53640U 22104BE  23037.97793203  .00001261  00000-0  97286-4 0  9998,2 53640  53.2174 241.8674 0001123  81.3803 278.7316 15.08846513 26131,6917.86,95.437,540.502,538.949,0.0
53640.0,STARLINK-4597,PAYLOAD,2023-02-07 20:08:14,15.08840806,0.0001332,53.2176,238.0015,99.7267,260.3876,7.8757e-05,9.66e-06,0.0,0 STARLINK-4597,1 53640U 22104BE  23038.83905642  .00000966  00000-0  78757-4 0  9999,2 53640  53.2176 238.0015 0001332  99.7267 260.3876 15.08840806 25247,6917.878,95.438,540.664,538.821,0.0
53640.0,STARLINK-4597,PAYLOAD,2023-02-08 18:23:38,15.08837935,0.000112,53.2181,233.8405,94.2684,265.8436,5.7436e-05,6.26e-06,0.0,0 STARLINK-4597,1 53640U 22104BE  23039.76642062  .00000626  00000-0  57436-4 0  9990,2 53640  53.2181 233.8405 0001120  94.2684 265.8436 15.08837935 25383,6917.887,95.438,540.527,538.977,0.0
53640.0,STARLINK-4597,PAYLOAD,2023-02-09 11:52:53,15.08838275,0.0001111,53.2181,230.5682,93.3921,266.7198,7.0345e-05,8.32e-06,0.0,0 STARLINK-4597,1 53640U 22104BE  23040.49506153  .00000832  00000-0  70345-4 0  9995,2 53640  53.2181 230.5682 0001111  93.3921 266.7198 15.08838275 26517,6917.886,95.438,540.519,538.982,0.0
53640.0,STARLINK-4597,PAYLOAD,2023-02-09 19:49:48,15.08841666,0.0001235,53.2182,229.0821,92.5043,267.609,3.1583e-05,2.15e-06,0.0,0 STARLINK-4597,1 53640U 22104BE  23040.82625812  .00000215  00000-0  31583-4 0  9992,2 53640  53.2182 229.0821 0001235  92.5043 267.6090 15.08841666 26563,6917.875,95.437,540.595,538.886,0.0
53640.0,STARLINK-4597,PAYLOAD,2023-02-09 23:00:34,15.0885155,0.000108,53.2173,228.485,108.7224,251.3885,0.00010571,1.395e-05,0.0,0 STARLINK-4597,1 53640U 22104BE  23040.95873204  .00001395  00000-0  10571-3 0  9999,2 53640  53.2173 228.4850 0001080 108.7224 251.3885 15.08851550 25561,6917.845,95.437,540.457,538.963,0.0
53640.0,STARLINK-4597,PAYLOAD,2023-02-10 16:29:49,15.08836905,0.000115,53.2162,225.2117,124.4225,235.6876,3.2802e-05,2.34e-06,0.0,0 STARLINK-4597,1 53640U 22104BE  23041.68737996  .00000234  00000-0  32802-4 0  9990,2 53640  53.2162 225.2117 0001150 124.4225 235.6876 15.08836905 26691,6917.89,95.438,540.55,538.959,0.0
53640.0,STARLINK-4597,PAYLOAD,2023-02-11 05:12:55,15.0883874,0.0001031,53.2178,222.8367,88.7433,271.3677,9.4159e-05,1.211e-05,0.0,0 STARLINK-4597,1 53640U 22104BE  23042.21730344  .00001211  00000-0  94159-4 0  9999,2 53640  53.2178 222.8367 0001031  88.7433 271.3677 15.08838740 25750,6917.884,95.438,540.462,539.036,0.0
53640.0,STARLINK-4597,PAYLOAD,2023-02-11 17:56:00,15.08839011,0.000107,53.2183,220.4567,94.899,265.2125,2.8345e-05,1.63e-06,0.0,0 STARLINK-4597,1 53640U 22104BE  23042.74722629  .00000163  00000-0  28345-4 0  9993,2 53640  53.2183 220.4567 0001070  94.8990 265.2125 15.08839011 26855,6917.883,95.438,540.489,539.008,0.0
53640.0,STARLINK-4597,PAYLOAD,2023-02-12 11:25:15,15.08836496,0.0001259,53.2181,217.1871,69.9128,290.1999,8.7285e-05,1.101e-05,0.0,0 STARLINK-4597,1 53640U 22104BE  23043.47586827  .00001101  00000-0  87285-4 0  9993,2 53640  53.2181 217.1871 0001259  69.9128 290.1999 15.08836496 25948,6917.891,95.438,540.627,538.885,0.0
